{
  "type": "FeatureCollection",
  "features": [
    {
      "type": "Feature",
      "properties": {
        "norad_id": 36744,
        "name": "COMS 1",
        "group": "weather",
        "lat": -2.2448010688804976,
        "lon": -71.38728009637906,
        "alt_km": 35783.34586319736,
        "timestamp": "2025-12-17T04:57:44.047473+00:00",
        "meta_object_name": "COMS 1",
        "meta_object_id": "2010-032A",
        "meta_epoch": "2025-12-16T15:40:39.006336",
        "meta_mean_motion": 1.00271497,
        "meta_eccentricity": 7.618e-05,
        "meta_inclination": 4.3501,
        "meta_ra_of_asc_node": 77.9556,
        "meta_arg_of_pericenter": 203.9392,
        "meta_mean_anomaly": 166.9783,
        "meta_ephemeris_type": 0,
        "meta_classification_type": "U",
        "meta_norad_cat_id": 36744,
        "meta_element_set_no": 999,
        "meta_rev_at_epoch": 4926,
        "meta_bstar": 0,
        "meta_mean_motion_dot": -3.23e-06,
        "meta_mean_motion_ddot": 0,
        "tle_line1": "1 36744U 10032A   25350.65322924 -.00000323  00000+0  00000+0 0  9995",
        "tle_line2": "2 36744   4.3501  77.9556 0000761 203.9392 166.9783  1.00271497 49262"
      },
      "geometry": {
        "type": "Point",
        "coordinates": [
          -71.38728009637906,
          -2.2448010688804976
        ]
      }
    },
    {
      "type": "Feature",
      "properties": {
        "norad_id": 37214,
        "name": "FENGYUN 3B",
        "group": "weather",
        "lat": 80.16271007195306,
        "lon": -82.8552597959437,
        "alt_km": 840.6837267024121,
        "timestamp": "2025-12-17T04:57:44.047485+00:00",
        "meta_object_name": "FENGYUN 3B",
        "meta_object_id": "2010-059A",
        "meta_epoch": "2025-12-16T23:58:22.082880",
        "meta_mean_motion": 14.14789811,
        "meta_eccentricity": 0.00218888,
        "meta_inclination": 98.9909,
        "meta_ra_of_asc_node": 31.0061,
        "meta_arg_of_pericenter": 345.6931,
        "meta_mean_anomaly": 129.7965,
        "meta_ephemeris_type": 0,
        "meta_classification_type": "U",
        "meta_norad_cat_id": 37214,
        "meta_element_set_no": 999,
        "meta_rev_at_epoch": 78166,
        "meta_bstar": 6.250791e-06,
        "meta_mean_motion_dot": -3.3e-07,
        "meta_mean_motion_ddot": 0,
        "tle_line1": "1 37214U 10059A   25350.99886670 -.00000033  00000+0  62508-5 0  9992",
        "tle_line2": "2 37214  98.9909  31.0061 0021888 345.6931 129.7965 14.14789811781663"
      },
      "geometry": {
        "type": "Point",
        "coordinates": [
          -82.8552597959437,
          80.16271007195306
        ]
      }
    },
    {
      "type": "Feature",
      "properties": {
        "norad_id": 37849,
        "name": "SUOMI NPP",
        "group": "weather",
        "lat": 10.08684074483561,
        "lon": -73.06684833854324,
        "alt_km": 828.8456401841413,
        "timestamp": "2025-12-17T04:57:44.047496+00:00",
        "meta_object_name": "SUOMI NPP",
        "meta_object_id": "2011-061A",
        "meta_epoch": "2025-12-16T22:08:51.377568",
        "meta_mean_motion": 14.19515404,
        "meta_eccentricity": 0.00023662,
        "meta_inclination": 98.7777,
        "meta_ra_of_asc_node": 288.2268,
        "meta_arg_of_pericenter": 112.857,
        "meta_mean_anomaly": 247.2856,
        "meta_ephemeris_type": 0,
        "meta_classification_type": "U",
        "meta_norad_cat_id": 37849,
        "meta_element_set_no": 999,
        "meta_rev_at_epoch": 73258,
        "meta_bstar": 5.488247e-05,
        "meta_mean_motion_dot": 7.1e-07,
        "meta_mean_motion_ddot": 0,
        "tle_line1": "1 37849U 11061A   25350.92281687  .00000071  00000+0  54882-4 0  9996",
        "tle_line2": "2 37849  98.7777 288.2268 0002366 112.8570 247.2856 14.19515404732588"
      },
      "geometry": {
        "type": "Point",
        "coordinates": [
          -73.06684833854324,
          10.08684074483561
        ]
      }
    },
    {
      "type": "Feature",
      "properties": {
        "norad_id": 38552,
        "name": "METEOSAT-10 (MSG-3)",
        "group": "weather",
        "lat": 4.189787434055471,
        "lon": 160.77510190423249,
        "alt_km": 35787.219822503495,
        "timestamp": "2025-12-17T04:57:44.047508+00:00",
        "meta_object_name": "METEOSAT-10 (MSG-3)",
        "meta_object_id": "2012-035B",
        "meta_epoch": "2025-12-16T08:13:14.871072",
        "meta_mean_motion": 1.00275991,
        "meta_eccentricity": 7.087e-05,
        "meta_inclination": 4.237,
        "meta_ra_of_asc_node": 61.7152,
        "meta_arg_of_pericenter": 266.3674,
        "meta_mean_anomaly": 240.6885,
        "meta_ephemeris_type": 0,
        "meta_classification_type": "U",
        "meta_norad_cat_id": 38552,
        "meta_element_set_no": 999,
        "meta_rev_at_epoch": 4902,
        "meta_bstar": 0,
        "meta_mean_motion_dot": 1.5e-07,
        "meta_mean_motion_ddot": 0,
        "tle_line1": "1 38552U 12035B   25350.34253323  .00000015  00000+0  00000+0 0  9998",
        "tle_line2": "2 38552   4.2370  61.7152 0000708 266.3674 240.6885  1.00275991 49024"
      },
      "geometry": {
        "type": "Point",
        "coordinates": [
          160.77510190423249,
          4.189787434055471
        ]
      }
    },
    {
      "type": "Feature",
      "properties": {
        "norad_id": 38771,
        "name": "METOP-B",
        "group": "weather",
        "lat": -70.99888343439521,
        "lon": -165.2439165920725,
        "alt_km": 828.9057047881097,
        "timestamp": "2025-12-17T04:57:44.047518+00:00",
        "meta_object_name": "METOP-B",
        "meta_object_id": "2012-049A",
        "meta_epoch": "2025-12-16T22:42:27.086112",
        "meta_mean_motion": 14.21409922,
        "meta_eccentricity": 0.00030609,
        "meta_inclination": 98.6795,
        "meta_ra_of_asc_node": 40.8336,
        "meta_arg_of_pericenter": 135.162,
        "meta_mean_anomaly": 224.9805,
        "meta_ephemeris_type": 0,
        "meta_classification_type": "U",
        "meta_norad_cat_id": 38771,
        "meta_element_set_no": 999,
        "meta_rev_at_epoch": 68737,
        "meta_bstar": 7.8191027e-05,
        "meta_mean_motion_dot": 1.27e-06,
        "meta_mean_motion_ddot": 0,
        "tle_line1": "1 38771U 12049A   25350.94614683  .00000127  00000+0  78191-4 0  9997",
        "tle_line2": "2 38771  98.6795  40.8336 0003060 135.1620 224.9805 14.21409922687378"
      },
      "geometry": {
        "type": "Point",
        "coordinates": [
          -165.2439165920725,
          -70.99888343439521
        ]
      }
    },
    {
      "type": "Feature",
      "properties": {
        "norad_id": 39216,
        "name": "INSAT-3D",
        "group": "weather",
        "lat": -0.6374428104702976,
        "lon": -69.99903372303862,
        "alt_km": 35783.15076357254,
        "timestamp": "2025-12-17T04:57:44.047528+00:00",
        "meta_object_name": "INSAT-3D",
        "meta_object_id": "2013-038B",
        "meta_epoch": "2025-12-16T17:23:45.360384",
        "meta_mean_motion": 1.00268278,
        "meta_eccentricity": 0.00012376,
        "meta_inclination": 1.4547,
        "meta_ra_of_asc_node": 84.9539,
        "meta_arg_of_pericenter": 165.8671,
        "meta_mean_anomaly": 225.2241,
        "meta_ephemeris_type": 0,
        "meta_classification_type": "U",
        "meta_norad_cat_id": 39216,
        "meta_element_set_no": 999,
        "meta_rev_at_epoch": 4525,
        "meta_bstar": 0,
        "meta_mean_motion_dot": -3.16e-06,
        "meta_mean_motion_ddot": 0,
        "tle_line1": "1 39216U 13038B   25350.72483056 -.00000316  00000+0  00000+0 0  9995",
        "tle_line2": "2 39216   1.4547  84.9539 0001237 165.8671 225.2241  1.00268278 45257"
      },
      "geometry": {
        "type": "Point",
        "coordinates": [
          -69.99903372303862,
          -0.6374428104702976
        ]
      }
    },
    {
      "type": "Feature",
      "properties": {
        "norad_id": 39260,
        "name": "FENGYUN 3C",
        "group": "weather",
        "lat": 47.27734868395427,
        "lon": -40.62479088240786,
        "alt_km": 843.1011529343969,
        "timestamp": "2025-12-17T04:57:44.047538+00:00",
        "meta_object_name": "FENGYUN 3C",
        "meta_object_id": "2013-052A",
        "meta_epoch": "2025-12-16T23:38:49.642656",
        "meta_mean_motion": 14.15697677,
        "meta_eccentricity": 0.00145085,
        "meta_inclination": 98.4766,
        "meta_ra_of_asc_node": 328.4574,
        "meta_arg_of_pericenter": 183.5755,
        "meta_mean_anomaly": 176.5318,
        "meta_ephemeris_type": 0,
        "meta_classification_type": "U",
        "meta_norad_cat_id": 39260,
        "meta_element_set_no": 999,
        "meta_rev_at_epoch": 63278,
        "meta_bstar": 7.9242997e-05,
        "meta_mean_motion_dot": 1.14e-06,
        "meta_mean_motion_ddot": 0,
        "tle_line1": "1 39260U 13052A   25350.98529679  .00000114  00000+0  79243-4 0  9995",
        "tle_line2": "2 39260  98.4766 328.4574 0014508 183.5755 176.5318 14.15697677632787"
      },
      "geometry": {
        "type": "Point",
        "coordinates": [
          -40.62479088240786,
          47.27734868395427
        ]
      }
    }
  ]
}